[
  {
    "OBJECT_NAME": "STARLINK-1524",
    "OBJECT_ID": "20055W",
    "EPOCH": "2025-11-11T05:47:56.693760",
    "MEAN_MOTION": 15.06394283,
    "ECCENTRICITY": 0.0001416,
    "INCLINATION": 53.0541,
    "RA_OF_ASC_NODE": 288.3524,
    "ARG_OF_PERICENTER": 82.3168,
    "MEAN_ANOMALY": 277.7982,
    "EPHEMERIS_TYPE": 0,
    "CLASSIFICATION_TYPE": "U",
    "NORAD_CAT_ID": 46047,
    "ELEMENT_SET_NO": 999,
    "REV_AT_EPOCH": 29117,
    "BSTAR": 0.00014543,
    "MEAN_MOTION_DOT": 1.885e-05,
    "MEAN_MOTION_DDOT": 0.0,
    "TLE_LINE1": "1 46047U 20055W   25315.24162840  .00001885  00000+0  14543-3 0  9997",
    "TLE_LINE2": "2 46047  53.0541 288.3524 0001416  82.3168 277.7982 15.06394283291176",
    "COMMENT": "Grouped by shell and plane from TLE"
  },
  {
    "OBJECT_NAME": "STARLINK-1527",
    "OBJECT_ID": "20055X",
    "EPOCH": "2025-11-11T05:42:37.169280",
    "MEAN_MOTION": 15.0640533,
    "ECCENTRICITY": 0.0001609,
    "INCLINATION": 53.0552,
    "RA_OF_ASC_NODE": 288.369,
    "ARG_OF_PERICENTER": 69.825,
    "MEAN_ANOMALY": 290.2912,
    "EPHEMERIS_TYPE": 0,
    "CLASSIFICATION_TYPE": "U",
    "NORAD_CAT_ID": 46048,
    "ELEMENT_SET_NO": 999,
    "REV_AT_EPOCH": 29115,
    "BSTAR": 0.00018165,
    "MEAN_MOTION_DOT": 2.425e-05,
    "MEAN_MOTION_DDOT": 0.0,
    "TLE_LINE1": "1 46048U 20055X   25315.23793020  .00002425  00000+0  18165-3 0  9992",
    "TLE_LINE2": "2 46048  53.0552 288.3690 0001609  69.8250 290.2912 15.06405330291156",
    "COMMENT": "Grouped by shell and plane from TLE"
  },
  {
    "OBJECT_NAME": "STARLINK-1540",
    "OBJECT_ID": "20055AA",
    "EPOCH": "2025-11-11T04:54:51.400512",
    "MEAN_MOTION": 15.06402947,
    "ECCENTRICITY": 0.0001696,
    "INCLINATION": 53.0553,
    "RA_OF_ASC_NODE": 288.518,
    "ARG_OF_PERICENTER": 93.7779,
    "MEAN_ANOMALY": 266.3404,
    "EPHEMERIS_TYPE": 0,
    "CLASSIFICATION_TYPE": "U",
    "NORAD_CAT_ID": 46051,
    "ELEMENT_SET_NO": 999,
    "REV_AT_EPOCH": 29118,
    "BSTAR": 0.0,
    "MEAN_MOTION_DOT": -2.784e-05,
    "MEAN_MOTION_DDOT": 0.0,
    "TLE_LINE1": "1 46051U 20055AA  25315.20476158 -.00002784  00000+0 -16806-3 0  9993",
    "TLE_LINE2": "2 46051  53.0553 288.5180 0001696  93.7779 266.3404 15.06402947291189",
    "COMMENT": "Grouped by shell and plane from TLE"
  },
  {
    "OBJECT_NAME": "STARLINK-1541",
    "OBJECT_ID": "20055AB",
    "EPOCH": "2025-11-11T06:09:11.421216",
    "MEAN_MOTION": 15.06413352,
    "ECCENTRICITY": 0.000147,
    "INCLINATION": 53.0539,
    "RA_OF_ASC_NODE": 288.2839,
    "ARG_OF_PERICENTER": 84.7691,
    "MEAN_ANOMALY": 275.3466,
    "EPHEMERIS_TYPE": 0,
    "CLASSIFICATION_TYPE": "U",
    "NORAD_CAT_ID": 46052,
    "ELEMENT_SET_NO": 999,
    "REV_AT_EPOCH": 29115,
    "BSTAR": 0.00091242,
    "MEAN_MOTION_DOT": 0.0001334,
    "MEAN_MOTION_DDOT": 0.0,
    "TLE_LINE1": "1 46052U 20055AB  25315.25638219  .00013340  00000+0  91242-3 0  9992",
    "TLE_LINE2": "2 46052  53.0539 288.2839 0001470  84.7691 275.3466 15.06413352291152",
    "COMMENT": "Grouped by shell and plane from TLE"
  },
  {
    "OBJECT_NAME": "STARLINK-1543",
    "OBJECT_ID": "20055AC",
    "EPOCH": "2025-11-11T04:38:57.063264",
    "MEAN_MOTION": 15.06392775,
    "ECCENTRICITY": 0.0001518,
    "INCLINATION": 53.0559,
    "RA_OF_ASC_NODE": 288.5627,
    "ARG_OF_PERICENTER": 85.9273,
    "MEAN_ANOMALY": 274.189,
    "EPHEMERIS_TYPE": 0,
    "CLASSIFICATION_TYPE": "U",
    "NORAD_CAT_ID": 46053,
    "ELEMENT_SET_NO": 999,
    "REV_AT_EPOCH": 29117,
    "BSTAR": 0.00023136,
    "MEAN_MOTION_DOT": 3.166e-05,
    "MEAN_MOTION_DDOT": 0.0,
    "TLE_LINE1": "1 46053U 20055AC  25315.19371601  .00003166  00000+0  23136-3 0  9997",
    "TLE_LINE2": "2 46053  53.0559 288.5627 0001518  85.9273 274.1890 15.06392775291170",
    "COMMENT": "Grouped by shell and plane from TLE"
  },
  {
    "OBJECT_NAME": "STARLINK-1548",
    "OBJECT_ID": "20055AD",
    "EPOCH": "2025-11-11T04:49:33.409632",
    "MEAN_MOTION": 15.06396562,
    "ECCENTRICITY": 0.0001651,
    "INCLINATION": 53.0563,
    "RA_OF_ASC_NODE": 288.5347,
    "ARG_OF_PERICENTER": 80.314,
    "MEAN_ANOMALY": 279.8035,
    "EPHEMERIS_TYPE": 0,
    "CLASSIFICATION_TYPE": "U",
    "NORAD_CAT_ID": 46054,
    "ELEMENT_SET_NO": 999,
    "REV_AT_EPOCH": 29117,
    "BSTAR": 5.541700000000001e-05,
    "MEAN_MOTION_DOT": 5.44e-06,
    "MEAN_MOTION_DDOT": 0.0,
    "TLE_LINE1": "1 46054U 20055AD  25315.20108113  .00000544  00000+0  55417-4 0  9991",
    "TLE_LINE2": "2 46054  53.0563 288.5347 0001651  80.3140 279.8035 15.06396562291176",
    "COMMENT": "Grouped by shell and plane from TLE"
  },
  {
    "OBJECT_NAME": "STARLINK-1554",
    "OBJECT_ID": "20055AE",
    "EPOCH": "2025-11-11T06:03:52.288128",
    "MEAN_MOTION": 15.06394397,
    "ECCENTRICITY": 0.0001586,
    "INCLINATION": 53.0552,
    "RA_OF_ASC_NODE": 288.3012,
    "ARG_OF_PERICENTER": 89.0199,
    "MEAN_ANOMALY": 271.0972,
    "EPHEMERIS_TYPE": 0,
    "CLASSIFICATION_TYPE": "U",
    "NORAD_CAT_ID": 46055,
    "ELEMENT_SET_NO": 999,
    "REV_AT_EPOCH": 29118,
    "BSTAR": 0.00013370000000000002,
    "MEAN_MOTION_DOT": 1.71e-05,
    "MEAN_MOTION_DDOT": 0.0,
    "TLE_LINE1": "1 46055U 20055AE  25315.25268852  .00001710  00000+0  13370-3 0  9991",
    "TLE_LINE2": "2 46055  53.0552 288.3012 0001586  89.0199 271.0972 15.06394397291188",
    "COMMENT": "Grouped by shell and plane from TLE"
  },
  {
    "OBJECT_NAME": "STARLINK-1564",
    "OBJECT_ID": "20055AH",
    "EPOCH": "2025-11-11T04:44:20.570784",
    "MEAN_MOTION": 15.06392196,
    "ECCENTRICITY": 0.0001529,
    "INCLINATION": 53.0548,
    "RA_OF_ASC_NODE": 289.0106,
    "ARG_OF_PERICENTER": 86.1034,
    "MEAN_ANOMALY": 274.013,
    "EPHEMERIS_TYPE": 0,
    "CLASSIFICATION_TYPE": "U",
    "NORAD_CAT_ID": 46058,
    "ELEMENT_SET_NO": 999,
    "REV_AT_EPOCH": 29116,
    "BSTAR": 6.0015e-05,
    "MEAN_MOTION_DOT": 6.12e-06,
    "MEAN_MOTION_DDOT": 0.0,
    "TLE_LINE1": "1 46058U 20055AH  25315.19746031  .00000612  00000+0  60015-4 0  9996",
    "TLE_LINE2": "2 46058  53.0548 289.0106 0001529  86.1034 274.0130 15.06392196291163",
    "COMMENT": "Grouped by shell and plane from TLE"
  },
  {
    "OBJECT_NAME": "STARLINK-1570",
    "OBJECT_ID": "20055AJ",
    "EPOCH": "2025-11-11T07:02:15.194688",
    "MEAN_MOTION": 15.06401939,
    "ECCENTRICITY": 0.0001414,
    "INCLINATION": 53.0552,
    "RA_OF_ASC_NODE": 288.1227,
    "ARG_OF_PERICENTER": 81.9703,
    "MEAN_ANOMALY": 278.1446,
    "EPHEMERIS_TYPE": 0,
    "CLASSIFICATION_TYPE": "U",
    "NORAD_CAT_ID": 46059,
    "ELEMENT_SET_NO": 999,
    "REV_AT_EPOCH": 29114,
    "BSTAR": 0.00025320999999999997,
    "MEAN_MOTION_DOT": 3.492e-05,
    "MEAN_MOTION_DDOT": 0.0,
    "TLE_LINE1": "1 46059U 20055AJ  25315.29323142  .00003492  00000+0  25321-3 0  9991",
    "TLE_LINE2": "2 46059  53.0552 288.1227 0001414  81.9703 278.1446 15.06401939291141",
    "COMMENT": "Grouped by shell and plane from TLE"
  },
  {
    "OBJECT_NAME": "STARLINK-1572",
    "OBJECT_ID": "20055AK",
    "EPOCH": "2025-11-11T06:56:55.172544",
    "MEAN_MOTION": 15.06413609,
    "ECCENTRICITY": 0.0001595,
    "INCLINATION": 53.0558,
    "RA_OF_ASC_NODE": 288.1369,
    "ARG_OF_PERICENTER": 92.8859,
    "MEAN_ANOMALY": 267.2313,
    "EPHEMERIS_TYPE": 0,
    "CLASSIFICATION_TYPE": "U",
    "NORAD_CAT_ID": 46060,
    "ELEMENT_SET_NO": 999,
    "REV_AT_EPOCH": 29115,
    "BSTAR": 0.0005242000000000001,
    "MEAN_MOTION_DOT": 7.538e-05,
    "MEAN_MOTION_DDOT": 0.0,
    "TLE_LINE1": "1 46060U 20055AK  25315.28952746  .00007538  00000+0  52420-3 0  9995",
    "TLE_LINE2": "2 46060  53.0558 288.1369 0001595  92.8859 267.2313 15.06413609291159",
    "COMMENT": "Grouped by shell and plane from TLE"
  },
  {
    "OBJECT_NAME": "STARLINK-1573",
    "OBJECT_ID": "20055AL",
    "EPOCH": "2025-11-11T06:51:38.827584",
    "MEAN_MOTION": 15.06400979,
    "ECCENTRICITY": 0.0001305,
    "INCLINATION": 53.0541,
    "RA_OF_ASC_NODE": 288.1906,
    "ARG_OF_PERICENTER": 85.0166,
    "MEAN_ANOMALY": 275.0972,
    "EPHEMERIS_TYPE": 0,
    "CLASSIFICATION_TYPE": "U",
    "NORAD_CAT_ID": 46061,
    "ELEMENT_SET_NO": 999,
    "REV_AT_EPOCH": 29118,
    "BSTAR": 0.00019557,
    "MEAN_MOTION_DOT": 2.633e-05,
    "MEAN_MOTION_DDOT": 0.0,
    "TLE_LINE1": "1 46061U 20055AL  25315.28586606  .00002633  00000+0  19557-3 0  9999",
    "TLE_LINE2": "2 46061  53.0541 288.1906 0001305  85.0166 275.0972 15.06400979291180",
    "COMMENT": "Grouped by shell and plane from TLE"
  },
  {
    "OBJECT_NAME": "STARLINK-1577",
    "OBJECT_ID": "20055AN",
    "EPOCH": "2025-11-11T05:53:15.527904",
    "MEAN_MOTION": 15.06389606,
    "ECCENTRICITY": 0.000159,
    "INCLINATION": 53.0561,
    "RA_OF_ASC_NODE": 288.3335,
    "ARG_OF_PERICENTER": 84.2998,
    "MEAN_ANOMALY": 275.8173,
    "EPHEMERIS_TYPE": 0,
    "CLASSIFICATION_TYPE": "U",
    "NORAD_CAT_ID": 46063,
    "ELEMENT_SET_NO": 999,
    "REV_AT_EPOCH": 29117,
    "BSTAR": 7.1433e-05,
    "MEAN_MOTION_DOT": 7.82e-06,
    "MEAN_MOTION_DDOT": 0.0,
    "TLE_LINE1": "1 46063U 20055AN  25315.24531861  .00000782  00000+0  71433-4 0  9995",
    "TLE_LINE2": "2 46063  53.0561 288.3335 0001590  84.2998 275.8173 15.06389606291175",
    "COMMENT": "Grouped by shell and plane from TLE"
  },
  {
    "OBJECT_NAME": "STARLINK-1583",
    "OBJECT_ID": "20055AP",
    "EPOCH": "2025-11-11T05:05:28.680000",
    "MEAN_MOTION": 15.06397457,
    "ECCENTRICITY": 0.0001501,
    "INCLINATION": 53.057,
    "RA_OF_ASC_NODE": 288.4884,
    "ARG_OF_PERICENTER": 101.1531,
    "MEAN_ANOMALY": 258.9627,
    "EPHEMERIS_TYPE": 0,
    "CLASSIFICATION_TYPE": "U",
    "NORAD_CAT_ID": 46064,
    "ELEMENT_SET_NO": 999,
    "REV_AT_EPOCH": 29117,
    "BSTAR": 5.0431000000000006e-05,
    "MEAN_MOTION_DOT": 4.7e-06,
    "MEAN_MOTION_DDOT": 0.0,
    "TLE_LINE1": "1 46064U 20055AP  25315.21213750  .00000470  00000+0  50431-4 0  9996",
    "TLE_LINE2": "2 46064  53.0570 288.4884 0001501 101.1531 258.9627 15.06397457291179",
    "COMMENT": "Grouped by shell and plane from TLE"
  }
]